[{"OBJECT_NAME":"SUPERVIEW-1 03","OBJECT_ID":"2018-002A","EPOCH":"2026-03-09T22:14:33.880992","MEAN_MOTION":15.35916978,"ECCENTRICITY":0.00509393,"INCLINATION":97.3162,"RA_OF_ASC_NODE":154.1458,"ARG_OF_PERICENTER":177.0269,"MEAN_ANOMALY":183.1288,"EPHEMERIS_TYPE":0,"CLASSIFICATION_TYPE":"U","NORAD_CAT_ID":43099,"ELEMENT_SET_NO":999,"REV_AT_EPOCH":45311,"BSTAR":0.00062641306,"MEAN_MOTION_DOT":0.00022818,"MEAN_MOTION_DDOT":0},{"OBJECT_NAME":"STARLINK-35427","OBJECT_ID":"2025-236AA","EPOCH":"2026-03-09T09:20:17.861568","MEAN_MOTION":15.30196492,"ECCENTRICITY":0.00012001,"INCLINATION":53.1575,"RA_OF_ASC_NODE":105.6194,"ARG_OF_PERICENTER":90.9,"MEAN_ANOMALY":269.2138,"EPHEMERIS_TYPE":0,"CLASSIFICATION_TYPE":"U","NORAD_CAT_ID":66110,"ELEMENT_SET_NO":999,"REV_AT_EPOCH":2289,"BSTAR":0.00095732028,"MEAN_MOTION_DOT":0.00028098,"MEAN_MOTION_DDOT":0}]
